stk.v.4.3 

BEGIN Ephemeris 
 
NumberOfEphemerisPoints		146 
ScenarioEpoch	    1 Sep 2020  9:33:51.261402369 
InterpolationMethod		Lagrange 
InterpolationOrder		5 
CentralBody				Earth 
CoordinateSystem			TEME 
CoordinateSystemEpoch	  1 Sep 2020  9:33:51.261402369 
DistanceUnit			Kilometers 
 
EphemerisTimePosVel 
 
       0.00000000   -7070.72359173   -1117.83301191       0.03645717  0.082657579 -0.460722560  7.449120116
 END Ephemeris 
